CALSPHERE 1
1 00900U 64063C   20022.13946635  .00000195  00000-0  19935-3 0  9996
2 00900  90.1489  26.0175 0028488 136.2976 341.4996 13.73322197750238
ORBCOMM FM07
1 25119U 97084H   20021.52843852  .00000007  00000-0  48009-4 0  9990
2 25119  45.0172  47.4588 0003658 328.8621  31.2010 14.38978899156866
CELESTIS-03 & TAURUS R/B
1 26034U 99070C   20022.50843750  .00001082  00000-0  71675-4 0  9999
2 26034  98.2438 304.3396 0011660 209.2904 150.7671 15.09712402 88564
SAUDICOMSAT 2
1 28370U 04025E   20022.09695677 -.00000001  00000-0  11991-4 0  9993
2 28370  98.4150 330.4683 0058523 142.4320 218.0983 14.47462961821720
RESURS-DK 1
1 29228U 06021A   20022.48720274  .00000033  00000-0  98501-5 0  9996
2 29228  69.9339 202.1257 0006887 304.0050  56.0456 15.02502764750677
WORLDVIEW-1 (WV-1)
1 32060U 07041A   20022.13754163  .00000534  00000-0  24627-4 0  9996
2 32060  97.3840 143.9693 0002070  90.5727 269.5748 15.24428688686816
GOSAT (IBUKI)
1 33492U 09002A   20021.77689306  .00000033  00000-0  14174-4 0  9990
2 33492  98.0498 135.2108 0001332 108.8662 251.2687 14.67557715588955
CRYOSAT 2
1 36508U 10013A   20022.14498589  .00000029  00000-0  62977-5 0  9998
2 36508  92.0287  72.0364 0007202  12.2820 347.8562 14.52173122518872
APRIZESAT 5
1 37792U 11044E   20022.52327848  .00000033  00000-0  13366-4 0  9992
2 37792  98.4152 215.4785 0056999 273.6430  85.8261 14.75363540453824
SPOT 6
1 38755U 12047A   20022.46260227 -.00000061  00000-0 -33947-5 0  9997
2 38755  98.1863  91.6601 0001391  96.8314 263.3045 14.58554353392317
COSMOS 2487
1 39194U 13032A   20022.44828483  .00002583  00000-0  65283-4 0  9998
2 39194  74.7117 348.7034 0004472 257.7561 102.3151 15.40326960367436
UWE-3
1 39446U 13066AG  20021.94278551  .00000197  00000-0  32625-4 0  9997
2 39446  97.5890  19.9058 0071387  71.5134 289.3819 14.78481295331360
QB50P1
1 40025U 14033R   20022.43022639  .00000132  00000-0  20023-4 0  9994
2 40025  97.9124 306.7995 0013769  65.6209 294.6443 14.89056991303727
SKYSAT-2
1 40072U 14037D   20022.44489231  .00000089  00000-0  18917-4 0  9996
2 40072  98.4473 192.6967 0005364 240.7333 119.3342 14.81244856299488
YAOGAN 25B
1 40339U 14080B   20022.23209668  .00000003  00000-0  14635-3 0  9999
2 40339  63.4000 203.7758 0157026 359.8948   0.2017 13.45188297251346
ZDPS 2B
1 40902U 15049D   20022.53868088  .00000886  00000-0  46871-4 0  9998
2 40902  97.4589  27.5993 0013853 155.3556 320.1742 15.17962021240250
VELOX-CI
1 41166U 15077A   20021.89925397  .00000888  00000-0  13530-4 0  9995
2 41166  14.9831 108.7417 0011213 150.1395 209.9566 15.09918472226537
AIST-2D (RS-48)
1 41465U 16026B   20022.52236204  .00000768  00000-0  25351-4 0  9996
2 41465  97.1690 276.8129 0013072  61.2824  61.8173 15.34309277208899
GAOFEN 3
1 41727U 16049A   20022.52981619 -.00000037  00000-0  20009-5 0  9995
2 41727  98.4132  32.1867 0001780  72.9456 287.1933 14.42214195181697
LEMUR-2-XIAOQING
1 41871U 16062C   20021.61614556  .00001461  00000-0  68759-4 0  9996
2 41871  51.6413 246.0218 0006428  51.9933 308.1625 15.26283236175631
IRIDIUM 105
1 41921U 17003E   20022.08550344  .00000062  00000-0  14964-4 0  9999
2 41921  86.3991 313.8412 0003118  70.7016 289.4516 14.34218197160014
FLOCK 3P-6
1 41969U 17008X   20021.60798695  .00000947  00000-0  39701-4 0  9994
2 41969  97.3832  91.1585 0009708  95.8233 264.4112 15.25926178162865
LEMUR-2-TACHIKOMA
1 41996U 17008BA  20022.47015173  .00001162  00000-0  48437-4 0  9999
2 41996  97.3816  91.4987 0009862 110.4551 249.7747 15.25653564162354
FLOCK 3P-32
1 42023U 17008CD  20022.17699780  .00001021  00000-0  42473-4 0  9998
2 42023  97.3833  91.8034 0009431  95.1665 265.0650 15.26007290163129
FLOCK 3P-83
1 42050U 17008DG  20022.12411798  .00000884  00000-0  37219-4 0  9992
2 42050  97.3859  92.0169 0009646  99.0126 261.2204 15.25935216163009
LEMUR-2-LISASAURUS
1 42780U 17036R   20022.14143025  .00000637  00000-0  29777-4 0  9996
2 42780  97.3263  80.3639 0012123 174.5296 185.6076 15.23239164143372
2017-042C
1 42827U 17042C   20022.16550195  .00000363  00000-0  41754-4 0  9992
2 42827  97.5424 270.8379 0016421  56.1199 304.1580 14.91223706137318
FLOCK 2K-47
1 42854U 17042AF  20022.40763964  .00002044  00000-0  52402-4 0  9999
2 42854  96.9126 258.3294 0009998 140.6160 219.5817 15.40388105141468
LEMUR-2-ARTFISCHER
1 42881U 17042BJ  20022.35541228  .00003089  00000-0  79035-4 0  9991
2 42881  96.9113 257.8633 0012451 137.0996 223.1224 15.40052235141409
IRIDIUM 129
1 42958U 17061D   20022.42464532  .00000048  00000-0  10169-4 0  9992
2 42958  86.3975 282.1444 0002401  92.5077 267.6394 14.34222600119721
JILIN-01-05
1 43023U 17074B   20022.52773328  .00000530  00000-0  36633-4 0  9997
2 43023  97.5302 119.0206 0010089  73.9621 342.5318 15.09836570119534
IRIDIUM 134
1 43075U 17083F   20022.53197260  .00000034  00000-0  50445-5 0  9997
2 43075  86.3971 218.8796 0002270  83.6157 276.5297 14.34217361109041
ARKYD 6A
1 43130U 18004V   20022.17643641  .00000660  00000-0  30545-4 0  9995
2 43130  97.4647  94.0529 0009095 202.6196 157.4641 15.23626368112608
YAOGAN-30 M
1 43172U 18011D   20022.50258148  .00000105  00000-0  13554-4 0  9995
2 43172  34.9988 161.8432 0004578   8.4153 351.6637 14.89705173108487
IRIDIUM 145
1 43253U 18030E   20021.97040694  .00000014  00000-0 -20209-5 0  9997
2 43253  86.3993 187.5605 0001673  40.5682 319.5639 14.34217429 94984
IRIDIUM 147
1 43480U 18047E   20022.16512109  .00000052  00000-0  11608-4 0  9997
2 43480  86.3983 345.3961 0002181  94.2152 265.9293 14.34217818 87374
IRIDIUM 158
1 43571U 18061C   20021.34350269  .00000049  00000-0  10391-4 0  9994
2 43571  86.3987 314.1329 0001872  77.5047 282.6358 14.34217246 78142
1998-067PP
1 43639U 98067PP  20021.28697234  .00010011  00000-0  10965-3 0  9998
2 43639  51.6381 335.3607 0004104 184.0867 176.0095 15.63961895 73574
TIANPING 1A
1 43712U 18094C   20022.52211953  .00000463  00000-0  22230-4 0  9999
2 43712  97.4071  31.8316 0012882 191.9498 320.1229 15.23696060 65245
HIBER-1
1 43744U 18096AB  20021.66721991  .00000991  00000-0  39542-4 0  9998
2 43744  97.4397  96.4314 0016468 292.2926  67.6567 15.27492031 63850
MOVE-II
1 43780U 18099Y   20022.17438059 -.00000033  00000-0  22257-5 0  9992
2 43780  97.7233  96.1310 0012728 331.6831  28.3697 14.95257906 61909
CENTAURI-1
1 43809U 18099BD  20022.48096485  .00000562  00000-0  55929-4 0  9998
2 43809  97.7223  96.6434 0014247 328.1110  31.9247 14.95497552 61679
ELECTRON KICK STAGE R/B
1 43851U 18104C   20021.82055055  .00000657  00000-0  26568-4 0  9999
2 43851  85.0373 272.9464 0014079 241.7485 118.2342 15.22463477 61060
FLOCK 3K-3
1 43892U 18111S   20022.15293492  .00001240  00000-0  52044-4 0  9995
2 43892  97.2785 286.2742 0022432 312.4424  47.4916 15.25126195 59574
IRIDIUM 175
1 43928U 19002G   20022.33557503  .00000130  00000-0  16735-4 0  9995
2 43928  86.6082 250.4628 0003115  79.5979 280.5589 14.72256807 55279
ONEWEB-0008
1 44059U 19010C   20022.48963348  .00000018  00000-0  13065-4 0  9992
2 44059  87.9220   3.6872 0001805  87.4665 272.6676 13.21814498 43619
FLOCK 4A-16
1 44099U 19018X   20022.45301057  .00000649  00000-0  30919-4 0  9991
2 44099  97.4306  85.3170 0011030 345.0951  14.9958 15.22641802 45043
STARLINK-33
1 44247U 19029N   20022.58334491  .00608413  00000-0  15946-1 0  9993
2 44247  53.0045 154.5128 0001414  73.6126 240.1442 15.36060563 36923
STARLINK-65
1 44276U 19029AT  20021.91667824 -.00001353  00000-0 -60565-4 0  9992
2 44276  53.0010 159.4339 0001379  69.1528 234.0797 15.12113914 36772
RCM-2
1 44324U 19033C   20022.52535882  .00000230  00000-0  27817-4 0  9991
2 44324  97.7596  31.4141 0001533  82.0737 278.0658 14.92592208 33391
2019-038B
1 44388U 19038B   20022.47006762  .00000598  00000-0  57644-4 0  9998
2 44388  97.7096 346.2001 0021219 294.9073  64.9943 14.96476794 30074
NARSSCUBE-2
1 44415U 19022E   20022.37405745  .00000041  00000-0  13877-4 0  9998
2 44415  51.6448  20.4726 0012036 147.3199 212.8528 15.29727770 25737
PEARL WHITE 2
1 44498U 19054D   20022.32195816  .00000253  00000-0  31630-4 0  9996
2 44498  45.0166 349.6266 0011404  52.9947  95.2103 15.08515708 23527
STARLINK-1009
1 44715U 19074C   20022.58334491  .00050730  00000-0  36283-3 0  9995
2 44715  53.0053 172.6490 0002850  15.0722  93.2556 15.73247506 11349
STARLINK-1037
1 44742U 19074AF  20022.58334491  .00139860  00000-0  40734-2 0  9992
2 44742  53.0050 175.3924 0001786  52.1971 166.3663 15.34401077 11313
STARLINK-1064
1 44769U 19074BJ  20022.58334491  .00073099  00000-0  49835-2 0  9993
2 44769  53.0017 193.8468 0001453  94.8002 331.0974 15.05586443 11058
FLOCK 4P-5
1 44818U 19081Q   20022.16935451  .00000485  00000-0  25838-4 0  9991
2 44818  97.5169  84.0175 0012159  52.2105 308.0229 15.19821852  8501
LEMUR-2-PAPPY
1 44861U 19089K   20022.02805144  .00000246  00000-0  26575-4 0  9991
2 44861  36.9680 249.6633 0008041 296.2448  63.7464 14.98626811  6167
STARLINK-1112
1 44925U 20001M   20022.58334491 -.00066259  00000-0 -68171-3 0  9996
2 44925  53.0000 320.2112 0001245  89.5911 266.9379 15.64266311  2458
STARLINK-1117
1 44952U 20001AQ  20022.58334491  .00711319  00000-0  49540-2 0  9996
2 44952  52.9984 319.7515 0001245  86.7314 139.5561 15.71725180  2453
